ALSAT 1                 
1 27559U 02054A   08211.17178076  .00000001  00000-0  92353-5 0  4586
2 27559  97.9905  90.6787 0011416  19.5904 340.5736 14.62972534302463
NIGERIASAT 1            
1 27941U 03042C   08211.18878486 -.00000004  00000-0  81738-5 0  5537
2 27941  97.9908  90.9777 0012764  76.6448 283.6182 14.62961895258311
UK-DMC                  
1 27942U 03042D   08211.22265036  .00000010  00000-0  10850-4 0  5413
2 27942  97.9898  90.8038 0012515  84.1840 276.0780 14.62972758258313
BILSAT 1                
1 27943U 03042E   08211.18196223 -.00000004  00000-0  80996-5 0  3804
2 27943  97.9891  90.6267 0012936  74.1153 286.1486 14.62878379258300
BEIJING 1               
1 28890U 05043A   08211.16228047  .00000002  00000-0  99416-5 0  2631
2 28890  98.0882 104.2592 0014417 278.6331  81.3241 14.60034145146776
